[{"OBJECT_NAME":"ECHOSTAR 15","OBJECT_ID":"2010-034A","EPOCH":"2026-04-27T11:49:03.288288","MEAN_MOTION":1.00271653,"ECCENTRICITY":0.0002049,"INCLINATION":0.0152,"RA_OF_ASC_NODE":262.792,"ARG_OF_PERICENTER":135.3438,"MEAN_ANOMALY":235.8115,"EPHEMERIS_TYPE":0,"CLASSIFICATION_TYPE":"U","NORAD_CAT_ID":36792,"ELEMENT_SET_NO":999,"REV_AT_EPOCH":5781,"BSTAR":0,"MEAN_MOTION_DOT":0,"MEAN_MOTION_DDOT":0},{"OBJECT_NAME":"BEIDOU-2 IGSO-1","OBJECT_ID":"2010-036A","EPOCH":"2026-04-23T19:55:57.482688","MEAN_MOTION":1.00288096,"ECCENTRICITY":0.00583551,"INCLINATION":54.2917,"RA_OF_ASC_NODE":163.4511,"ARG_OF_PERICENTER":224.0017,"MEAN_ANOMALY":229.7808,"EPHEMERIS_TYPE":0,"CLASSIFICATION_TYPE":"U","NORAD_CAT_ID":36828,"ELEMENT_SET_NO":999,"REV_AT_EPOCH":5755,"BSTAR":0,"MEAN_MOTION_DOT":-1.09e-6,"MEAN_MOTION_DDOT":0},{"OBJECT_NAME":"NILESAT 201","OBJECT_ID":"2010-037A","EPOCH":"2026-04-27T05:28:38.743680","MEAN_MOTION":1.00270562,"ECCENTRICITY":0.00028769,"INCLINATION":0.0367,"RA_OF_ASC_NODE":117.8207,"ARG_OF_PERICENTER":291.2309,"MEAN_ANOMALY":241.3556,"EPHEMERIS_TYPE":0,"CLASSIFICATION_TYPE":"U","NORAD_CAT_ID":36830,"ELEMENT_SET_NO":999,"REV_AT_EPOCH":5786,"BSTAR":0,"MEAN_MOTION_DOT":-6.8e-7,"MEAN_MOTION_DDOT":0},{"OBJECT_NAME":"RASCOM-QAF 1R","OBJECT_ID":"2010-037B","EPOCH":"2026-04-27T05:20:38.796864","MEAN_MOTION":1.00270594,"ECCENTRICITY":0.00066087,"INCLINATION":0.0119,"RA_OF_ASC_NODE":258.1541,"ARG_OF_PERICENTER":136.8891,"MEAN_ANOMALY":263.2361,"EPHEMERIS_TYPE":0,"CLASSIFICATION_TYPE":"U","NORAD_CAT_ID":36831,"ELEMENT_SET_NO":999,"REV_AT_EPOCH":5779,"BSTAR":0,"MEAN_MOTION_DOT":8.0e-8,"MEAN_MOTION_DDOT":0},{"OBJECT_NAME":"AEHF-1 (USA 214)","OBJECT_ID":"2010-039A","EPOCH":"2026-04-27T01:24:38.840832","MEAN_MOTION":1.00277449,"ECCENTRICITY":0.00042778,"INCLINATION":8.0955,"RA_OF_ASC_NODE":68.7159,"ARG_OF_PERICENTER":316.1409,"MEAN_ANOMALY":241.384,"EPHEMERIS_TYPE":0,"CLASSIFICATION_TYPE":"U","NORAD_CAT_ID":36868,"ELEMENT_SET_NO":999,"REV_AT_EPOCH":5314,"BSTAR":0,"MEAN_MOTION_DOT":1.43e-6,"MEAN_MOTION_DDOT":0},{"OBJECT_NAME":"XM-5","OBJECT_ID":"2010-053A","EPOCH":"2026-04-27T11:47:05.201952","MEAN_MOTION":1.00270921,"ECCENTRICITY":0.0003678,"INCLINATION":0.0645,"RA_OF_ASC_NODE":271.145,"ARG_OF_PERICENTER":276.2406,"MEAN_ANOMALY":89.6722,"EPHEMERIS_TYPE":0,"CLASSIFICATION_TYPE":"U","NORAD_CAT_ID":37185,"ELEMENT_SET_NO":999,"REV_AT_EPOCH":5697,"BSTAR":0,"MEAN_MOTION_DOT":-3.2e-7,"MEAN_MOTION_DDOT":0},{"OBJECT_NAME":"BSAT-3B","OBJECT_ID":"2010-056B","EPOCH":"2026-04-27T10:40:38.704224","MEAN_MOTION":1.00271439,"ECCENTRICITY":1.79e-5,"INCLINATION":0.0258,"RA_OF_ASC_NODE":200.0219,"ARG_OF_PERICENTER":353.8303,"MEAN_ANOMALY":291.5733,"EPHEMERIS_TYPE":0,"CLASSIFICATION_TYPE":"U","NORAD_CAT_ID":37207,"ELEMENT_SET_NO":999,"REV_AT_EPOCH":5159,"BSTAR":0,"MEAN_MOTION_DOT":-3.59e-6,"MEAN_MOTION_DDOT":0},{"OBJECT_NAME":"BEIDOU-2 G4","OBJECT_ID":"2010-057A","EPOCH":"2026-04-27T03:48:16.167744","MEAN_MOTION":1.00270118,"ECCENTRICITY":0.00064592,"INCLINATION":3.5227,"RA_OF_ASC_NODE":69.2314,"ARG_OF_PERICENTER":213.4659,"MEAN_ANOMALY":149.4463,"EPHEMERIS_TYPE":0,"CLASSIFICATION_TYPE":"U","NORAD_CAT_ID":37210,"ELEMENT_SET_NO":999,"REV_AT_EPOCH":5678,"BSTAR":0,"MEAN_MOTION_DOT":-1.21e-6,"MEAN_MOTION_DDOT":0},{"OBJECT_NAME":"SKYTERRA 1","OBJECT_ID":"2010-061A","EPOCH":"2026-04-27T11:39:56.772000","MEAN_MOTION":1.00271884,"ECCENTRICITY":0.0003205,"INCLINATION":5.0203,"RA_OF_ASC_NODE":50.8824,"ARG_OF_PERICENTER":25.2733,"MEAN_ANOMALY":212.9692,"EPHEMERIS_TYPE":0,"CLASSIFICATION_TYPE":"U","NORAD_CAT_ID":37218,"ELEMENT_SET_NO":999,"REV_AT_EPOCH":5668,"BSTAR":0,"MEAN_MOTION_DOT":-1.24e-6,"MEAN_MOTION_DDOT":0},{"OBJECT_NAME":"HYLAS 1","OBJECT_ID":"2010-065A","EPOCH":"2026-04-27T02:45:38.841696","MEAN_MOTION":1.00272598,"ECCENTRICITY":0.00016555,"INCLINATION":5.5165,"RA_OF_ASC_NODE":73.6291,"ARG_OF_PERICENTER":294.772,"MEAN_ANOMALY":261.9217,"EPHEMERIS_TYPE":0,"CLASSIFICATION_TYPE":"U","NORAD_CAT_ID":37237,"ELEMENT_SET_NO":999,"REV_AT_EPOCH":637,"BSTAR":0,"MEAN_MOTION_DOT":8.3e-7,"MEAN_MOTION_DDOT":0},{"OBJECT_NAME":"INTELSAT 17 (IS-17)","OBJECT_ID":"2010-065B","EPOCH":"2026-04-27T04:16:38.848224","MEAN_MOTION":1.00271571,"ECCENTRICITY":0.00027999,"INCLINATION":0.0187,"RA_OF_ASC_NODE":169.8847,"ARG_OF_PERICENTER":243.3197,"MEAN_ANOMALY":292.1276,"EPHEMERIS_TYPE":0,"CLASSIFICATION_TYPE":"U","NORAD_CAT_ID":37238,"ELEMENT_SET_NO":999,"REV_AT_EPOCH":5273,"BSTAR":0,"MEAN_MOTION_DOT":-1.2e-7,"MEAN_MOTION_DDOT":0},{"OBJECT_NAME":"BEIDOU-2 IGSO-2","OBJECT_ID":"2010-068A","EPOCH":"2026-04-26T20:54:37.728000","MEAN_MOTION":1.00299784,"ECCENTRICITY":0.00532377,"INCLINATION":47.6441,"RA_OF_ASC_NODE":272.4653,"ARG_OF_PERICENTER":211.5565,"MEAN_ANOMALY":149.1985,"EPHEMERIS_TYPE":0,"CLASSIFICATION_TYPE":"U","NORAD_CAT_ID":37256,"ELEMENT_SET_NO":999,"REV_AT_EPOCH":5628,"BSTAR":0,"MEAN_MOTION_DOT":-2.22e-6,"MEAN_MOTION_DDOT":0},{"OBJECT_NAME":"EUTELSAT KA-SAT 9A","OBJECT_ID":"2010-069A","EPOCH":"2026-04-27T07:45:38.699712","MEAN_MOTION":1.00268555,"ECCENTRICITY":0.0004272,"INCLINATION":0.0618,"RA_OF_ASC_NODE":354.0028,"ARG_OF_PERICENTER":146.2848,"MEAN_ANOMALY":200.4536,"EPHEMERIS_TYPE":0,"CLASSIFICATION_TYPE":"U","NORAD_CAT_ID":37258,"ELEMENT_SET_NO":999,"REV_AT_EPOCH":4349,"BSTAR":0,"MEAN_MOTION_DOT":5.1e-7,"MEAN_MOTION_DDOT":0},{"OBJECT_NAME":"HISPASAT 30W-5","OBJECT_ID":"2010-070A","EPOCH":"2026-04-27T08:59:58.640928","MEAN_MOTION":1.00270708,"ECCENTRICITY":0.0004616,"INCLINATION":0.066,"RA_OF_ASC_NODE":92.3066,"ARG_OF_PERICENTER":329.1569,"MEAN_ANOMALY":258.9029,"EPHEMERIS_TYPE":0,"CLASSIFICATION_TYPE":"U","NORAD_CAT_ID":37264,"ELEMENT_SET_NO":999,"REV_AT_EPOCH":5267,"BSTAR":0,"MEAN_MOTION_DOT":-2.26e-6,"MEAN_MOTION_DDOT":0},{"OBJECT_NAME":"KOREASAT 6","OBJECT_ID":"2010-070B","EPOCH":"2026-04-27T11:21:05.981760","MEAN_MOTION":1.00269682,"ECCENTRICITY":0.0002564,"INCLINATION":0.0159,"RA_OF_ASC_NODE":109.8452,"ARG_OF_PERICENTER":296.8192,"MEAN_ANOMALY":138.9634,"EPHEMERIS_TYPE":0,"CLASSIFICATION_TYPE":"U","NORAD_CAT_ID":37265,"ELEMENT_SET_NO":999,"REV_AT_EPOCH":5626,"BSTAR":0,"MEAN_MOTION_DOT":0,"MEAN_MOTION_DDOT":0},{"OBJECT_NAME":"BEIDOU-2 IGSO-3","OBJECT_ID":"2011-013A","EPOCH":"2026-04-24T17:34:48.622080","MEAN_MOTION":1.00280536,"ECCENTRICITY":0.00337019,"INCLINATION":62.3393,"RA_OF_ASC_NODE":40.6572,"ARG_OF_PERICENTER":188.3614,"MEAN_ANOMALY":355.5484,"EPHEMERIS_TYPE":0,"CLASSIFICATION_TYPE":"U","NORAD_CAT_ID":37384,"ELEMENT_SET_NO":999,"REV_AT_EPOCH":5512,"BSTAR":0,"MEAN_MOTION_DOT":-2.01e-6,"MEAN_MOTION_DDOT":0},{"OBJECT_NAME":"INTELSAT 28 (IS-28)","OBJECT_ID":"2011-016A","EPOCH":"2026-04-27T05:44:38.634720","MEAN_MOTION":1.00270775,"ECCENTRICITY":0.0004196,"INCLINATION":1.6763,"RA_OF_ASC_NODE":83.2079,"ARG_OF_PERICENTER":317.6894,"MEAN_ANOMALY":228.7807,"EPHEMERIS_TYPE":0,"CLASSIFICATION_TYPE":"U","NORAD_CAT_ID":37392,"ELEMENT_SET_NO":999,"REV_AT_EPOCH":5277,"BSTAR":0,"MEAN_MOTION_DOT":-2.33e-6,"MEAN_MOTION_DDOT":0}]
