ECHOSTAR 15             
1 36792U 10034A   26117.49239917  .00000000  00000+0  00000+0 0  9994
2 36792   0.0152 262.7920 0002049 135.3438 235.8115  1.00271653 57818
BEIDOU-2 IGSO-1         
1 36828U 10036A   26113.83052642 -.00000109  00000+0  00000+0 0  9999
2 36828  54.2917 163.4511 0058355 224.0017 229.7808  1.00288096 57552
NILESAT 201             
1 36830U 10037A   26117.22822620 -.00000068  00000+0  00000+0 0  9995
2 36830   0.0367 117.8207 0002876 291.2309 241.3556  1.00270562 57868
RASCOM-QAF 1R           
1 36831U 10037B   26117.22267126  .00000008  00000+0  00000+0 0  9993
2 36831   0.0119 258.1541 0006608 136.8891 263.2361  1.00270594 57795
AEHF-1 (USA 214)        
1 36868U 10039A   26117.05878288  .00000143  00000+0  00000+0 0  9993
2 36868   8.0955  68.7159 0004277 316.1409 241.3840  1.00277449 53149
XM-5                    
1 37185U 10053A   26117.49103243 -.00000032  00000+0  00000+0 0  9990
2 37185   0.0645 271.1450 0003678 276.2406  89.6722  1.00270921 56975
BSAT-3B                 
1 37207U 10056B   26117.44489241 -.00000359  00000+0  00000+0 0  9990
2 37207   0.0258 200.0219 0000179 353.8303 291.5733  1.00271439 51599
BEIDOU-2 G4             
1 37210U 10057A   26117.15852046 -.00000121  00000+0  00000+0 0  9997
2 37210   3.5227  69.2314 0006459 213.4659 149.4463  1.00270118 56780
SKYTERRA 1              
1 37218U 10061A   26117.48607375 -.00000124  00000+0  00000+0 0  9992
2 37218   5.0203  50.8824 0003205  25.2733 212.9692  1.00271884 56689
HYLAS 1                 
1 37237U 10065A   26117.11503289  .00000083  00000+0  00000+0 0  9999
2 37237   5.5165  73.6291 0001655 294.7720 261.9217  1.00272598  6370
INTELSAT 17 (IS-17)     
1 37238U 10065B   26117.17822741 -.00000012  00000+0  00000+0 0  9996
2 37238   0.0187 169.8847 0002799 243.3197 292.1276  1.00271571 52730
BEIDOU-2 IGSO-2         
1 37256U 10068A   26116.87127000 -.00000222  00000+0  00000+0 0  9994
2 37256  47.6441 272.4653 0053237 211.5565 149.1985  1.00299784 56283
EUTELSAT KA-SAT 9A      
1 37258U 10069A   26117.32336458  .00000051  00000+0  00000+0 0  9996
2 37258   0.0618 354.0028 0004272 146.2848 200.4536  1.00268555 43494
HISPASAT 30W-5          
1 37264U 10070A   26117.37498427 -.00000226  00000+0  00000+0 0  9990
2 37264   0.0660  92.3066 0004616 329.1569 258.9029  1.00270708 52674
KOREASAT 6              
1 37265U 10070B   26117.47298590  .00000000  00000+0  00000+0 0  9990
2 37265   0.0159 109.8452 0002564 296.8192 138.9634  1.00269682 56260
BEIDOU-2 IGSO-3         
1 37384U 11013A   26114.73250720 -.00000201  00000+0  00000+0 0  9993
2 37384  62.3393  40.6572 0033701 188.3614 355.5484  1.00280536 55124
INTELSAT 28 (IS-28)     
1 37392U 11016A   26117.23933605 -.00000233  00000+0  00000+0 0  9998
2 37392   1.6763  83.2079 0004196 317.6894 228.7807  1.00270775 52770
